{
  "type": "FeatureCollection",
  "features": [
    {
      "type": "Feature",
      "id": "route",
      "geometry": {
        "type": "LineString",
        "coordinates": [
          [152.93, -27.94],
          [152.23, -27.78],
          [151.66, -27.59],
          [151.30, -27.27],
          [151.00, -27.04],
          [150.78, -26.69],
          [150.29, -25.86],
          [150.03, -25.26],
          [149.59, -24.83],
          [149.11, -24.19],
          [148.80, -23.94],
          [148.27, -23.70],
          [147.70, -23.58],
          [146.91, -23.58],
          [146.43, -23.34],
          [146.12, -22.81],
          [146.07, -22.16],
          [146.03, -21.47],
          [145.85, -20.77],
          [145.68, -20.03],
          [145.28, -19.33],
          [144.89, -18.91],
          [144.54, -18.25],
          [144.10, -17.75],
          [143.70, -17.16],
          [143.39, -16.57],
          [143.00, -16.44],
          [142.95, -16.06],
          [142.69, -15.64],
          [142.29, -15.64],
          [142.03, -15.98],
          [141.68, -16.78],
          [141.37, -17.58],
          [141.11, -17.83],
          [140.45, -17.91],
          [139.57, -17.79],
          [138.65, -17.41],
          [138.34, -17.20],
          [138.08, -16.99],
          [137.77, -16.99],
          [137.33, -16.78],
          [136.85, -16.40],
          [136.10, -16.06],
          [135.79, -15.85],
          [135.44, -15.68],
          [135.35, -15.98],
          [135.18, -16.27],
          [134.87, -16.61],
          [134.60, -16.48],
          [134.60, -16.19],
          [134.60, -15.56],
          [134.60, -15.17],
          [134.43, -14.92],
          [133.99, -15.05],
          [133.73, -15.22],
          [133.29, -15.39],
          [132.98, -15.56],
          [132.85, -15.22],
          [132.71, -14.62],
          [132.45, -14.07],
          [132.54, -13.51],
          [132.76, -13.04],
          [132.85, -12.70],
          [132.93, -12.18],
          [132.93, -11.84],
          [132.71, -11.67]
        ]
      },
      "properties": { "name": "Port-Essington-Expedition 1844-1845" }
    },
    {
      "type": "Feature",
      "id": "p0",
      "geometry": { "type": "Point", "coordinates": [152.93, -27.94] },
      "properties": { "name": "Jimbour Station, Darling Downs", "label": "Start: 01.10.1844", "chapterIndex": 0 }
    },
    {
      "type": "Feature",
      "id": "p1",
      "geometry": { "type": "Point", "coordinates": [142.03, -15.98] },
      "properties": { "name": "Golf von Carpentaria", "label": "05.07.1845", "chapterIndex": 1 }
    },
    {
      "type": "Feature",
      "id": "p2",
      "geometry": { "type": "Point", "coordinates": [132.98, -15.56] },
      "properties": { "name": "Roper River", "label": "November 1845", "chapterIndex": 2 }
    },
    {
      "type": "Feature",
      "id": "p3",
      "geometry": { "type": "Point", "coordinates": [132.71, -11.67] },
      "properties": { "name": "Port Essington", "label": "17.12.1845", "chapterIndex": 3 }
    }
  ]
}
